satname,norad_id,inclination_deg,eccentricity,mean_motion_rev_per_day,perigee_km,apogee_km,l1,l2
STARLINK-1202,45183,53.1627,0.0001347,15.3019549,474.3053871618331,476.15168383709806,1 45183U 20012F   26077.50601477  .00003691  00000+0  13671-3 0  9997,2 45183  53.1627 358.3020 0001347  73.7198 286.3951 15.30195490336304
STARLINK-1216,45185,53.1624,0.0001388,15.30193139,474.28430709450186,476.1868033158262,1 45185U 20012H   26077.75779638  .00003287  00000+0  12307-3 0  9997,2 45185  53.1624 357.1100 0001388  84.4891 275.6268 15.30193139336280
STARLINK-1225,45187,53.1623,0.0001352,15.30203515,474.27800250215387,476.13114606383897,1 45187U 20012K   26077.82001663  .00004658  00000+0  16927-3 0  9998,2 45187  53.1623 357.2613 0001352  81.2019 278.9135 15.30203515336334
STARLINK-1230,45189,53.1621,0.0001434,15.30196759,474.2419744037652,476.20751855265553,1 45189U 20012M   26077.76418362 -.00001643  00000+0 -43354-4 0  9999,2 45189  53.1621 357.5806 0001434  83.0797 277.0367 15.30196759333554
STARLINK-1234,45190,53.0417,0.0005118,15.6453118,371.1313712386727,378.04345995047515,1 45190U 20012N   26077.85623678  .00114656  00000+0  11562-2 0  9990,2 45190  53.0417 280.4086 0005118 321.4958  38.5691 15.64531180337319
STARLINK-1269,45197,53.1624,0.0001224,15.30185894,474.4183322676781,476.0960431648309,1 45197U 20012V   26077.49974753  .00000929  00000+0  43512-4 0  9999,2 45197  53.1624 358.6687 0001224  79.5525 280.5614 15.30185894336264
STARLINK-1154,45198,53.0489,0.000709,15.47648055,418.78594548563615,428.43082043867616,1 45198U 20012W   26077.40807155  .00072013  00000+0  13668-2 0  9992,2 45198  53.0489 328.3661 0007090 126.6147 233.5513 15.47648055336649
STARLINK-1199,45201,53.1612,0.000117,15.30201567,474.4085489990648,476.0122322884754,1 45201U 20012Z   26077.73029221  .00003221  00000+0  12082-3 0  9998,2 45201  53.1612 341.8456 0001170  98.4789 261.6345 15.30201567336545
STARLINK-1209,45206,53.0449,0.0006838,15.52785053,403.95808925401343,413.2396292151034,1 45206U 20012AE  26077.88376280  .00069202  00000+0  10960-2 0  9992,2 45206  53.0449 289.1926 0006838 302.0729  57.9615 15.52785053336342
STARLINK-1231,45212,53.0479,0.0004442,15.21993559,496.7728630545316,502.88324720951096,1 45212U 20012AL  26077.87574460  .00036601  00000+0  15891-2 0  9993,2 45212  53.0479 333.5752 0004442 125.2264 234.9148 15.21993559336628
STARLINK-1271,45217,53.1615,0.0001027,15.30200887,474.5085820129498,475.9162599840238,1 45217U 20012AR  26077.72821377  .00005646  00000+0  20260-3 0  9996,2 45217  53.1615 341.9792 0001027  64.7045 295.4062 15.30200887336546
STARLINK-1191,45222,53.1589,8.41e-05,15.30939628,472.43138142089447,473.58374393633676,1 45222U 20012AW  26077.87708402  .00046538  00000+0  15380-2 0  9992,2 45222  53.1589 316.1327 0000841 129.7637 230.3438 15.30939628336921
STARLINK-1212,45223,53.0482,0.0005408,15.53907138,401.66280639749766,408.99980571732976,1 45223U 20012AX  26077.86023541  .00076873  00000+0  11675-2 0  9994,2 45223  53.0482 305.8818 0005408 154.3751 205.7528 15.53907138337066
STARLINK-1215,45225,53.1602,0.0001331,15.30203259,474.2931587847597,476.1175185153079,1 45225U 20012AZ  26077.86510074  .00007779  00000+0  27448-3 0  9993,2 45225  53.1602 315.6876 0001331  75.8264 284.2885 15.30203259336888
STARLINK-1221,45227,53.0642,0.0003508,15.42253303,437.0690599289219,441.85228645643474,1 45227U 20012BB  26077.79049442  .00014759  00000+0  34683-3 0  9998,2 45227  53.0642 226.4762 0003508  63.2250 296.9114 15.42253303338111
STARLINK-1222,45228,53.0554,0.0003971,15.50132356,413.6411969192595,419.03736998357635,1 45228U 20012BC  26077.90695156  .00021851  00000+0  38837-3 0  9997,2 45228  53.0554 298.6022 0003971 115.0921 245.0500 15.50132356337058
STARLINK-1226,45229,53.1577,0.0001175,15.30926443,472.2418851920993,473.8519134084345,1 45229U 20012BD  26077.89263013  .00020126  00000+0  67452-3 0  9998,2 45229  53.1577 315.8515 0001175 106.9998 253.1132 15.30926443336822
STARLINK-1227,45230,53.1606,6.36e-05,15.31532375,470.8041018428412,471.6753425619063,1 45230U 20012BE  26077.38787144  .00019325  00000+0  63620-3 0  9992,2 45230  53.1606 318.4015 0000636 130.5470 229.5587 15.31532375336863
STARLINK-1246,45235,53.1632,0.0001407,15.30205887,474.2332277917976,476.16175611783365,1 45235U 20012BK  26077.77042855  .00002957  00000+0  11192-3 0  9993,2 45235  53.1632 357.0707 0001407  73.1168 286.9987 15.30205887336367
STARLINK-1270,45237,53.0491,0.0003223,15.48538524,418.8092614216903,423.19198553378465,1 45237U 20012BM  26077.88051695  .00065675  00000+0  12110-2 0  9995,2 45237  53.0491 303.5994 0003223 139.2390 220.8859 15.48538524337096
STARLINK-1279,45360,53.0428,0.0002091,15.58736635,389.8969052176135,392.72788895547546,1 45360U 20019A   26077.16540111  .00109488  00000+0  13829-2 0  9995,2 45360  53.0428  57.5257 0002091 112.0700 248.0533 15.58736635331995
STARLINK-1301,45361,53.0416,5.21e-05,15.6596114,370.12434600425877,370.8275514735178,1 45361U 20019B   26077.66185230  .00047892  00000+0  46329-3 0  9990,2 45361  53.0416  60.0020 0000521 190.0702 170.0302 15.65961140332015
STARLINK-1262,45366,53.156,0.0001235,15.29353659,476.8965551816291,478.5899576049587,1 45366U 20019G   26077.82093955  .00001910  00000+0  78517-4 0  9991,2 45366  53.1560 122.7494 0001235  96.5145 263.5996 15.29353659331157
STARLINK-1273,45367,53.0493,0.0003561,15.45613461,427.1519079837926,432.0003612782775,1 45367U 20019H   26077.78506612  .00058648  00000+0  11983-2 0  9998,2 45367  53.0493 111.4997 0003561  30.4959 329.6253 15.45613461331304
STARLINK-1276,45368,53.0734,0.0001494,15.11174387,531.5848218747269,533.6497552561505,1 45368U 20019J   26077.41845543  .00016364  00000+0  97920-3 0  9993,2 45368  53.0734 127.1986 0001494  88.7089 271.4073 15.11174387331056
STARLINK-1277,45369,53.0512,0.0005524,15.50488109,411.5472397312633,419.05262885627053,1 45369U 20019K   26077.78748663  .00074463  00000+0  12791-2 0  9995,2 45369  53.0512 108.9782 0005524  39.1768 320.9639 15.50488109331347
STARLINK-1281,45370,53.1584,0.0001357,15.30193312,474.30503606889124,476.1650412401823,1 45370U 20019L   26077.81551350  .00002744  00000+0  10477-3 0  9999,2 45370  53.1584 122.9011 0001357  96.8446 263.2709 15.30193312331156
STARLINK-1300,45374,53.1555,0.00012,15.29354067,476.91933157085987,478.56474253975193,1 45374U 20019Q   26077.83688944  .00001025  00000+0  47845-4 0  9996,2 45374  53.1555 122.7979 0001200  82.4856 277.6281 15.29354067331150
STARLINK-1302,45375,53.0531,0.000364,15.5520296,399.0949031660966,404.03052455778925,1 45375U 20019R   26077.38549528  .00049007  00000+0  71515-3 0  9993,2 45375  53.0531 109.7576 0003640 352.7208   7.3749 15.55202960331291
STARLINK-1304,45376,53.0497,0.0003733,15.49819766,414.71613901425917,419.789577082277,1 45376U 20019S   26077.80671389  .00069210  00000+0  12190-2 0  9993,2 45376  53.0497 105.8090 0003733  19.8374 340.2778 15.49819766331381
STARLINK-1305,45377,53.0436,0.0003395,15.54751379,400.5732825166233,405.1775899608292,1 45377U 20019T   26077.32839669  .00089989  00000+0  13224-2 0  9992,2 45377  53.0436  90.5560 0003395 104.8808 255.2578 15.54751379331562
STARLINK-1319,45379,53.0436,0.0002889,15.66237739,367.73193985633134,371.63082931894587,1 45379U 20019V   26077.86221094  .00043364  00000+0  41556-3 0  9997,2 45379  53.0436  84.6402 0002889  74.2523 285.8810 15.66237739331698
STARLINK-1266,45383,53.0498,0.0004857,15.46890759,422.52342479972503,429.1327965082146,1 45383U 20019Z   26077.44951683  .00057133  00000+0  11175-2 0  9992,2 45383  53.0498  91.1693 0004857  46.6677 313.4734 15.46890759331559
STARLINK-1267,45384,53.0504,0.0002078,15.51334527,411.4175185586764,414.2398438957953,1 45384U 20019AA  26077.32128294  .00077744  00000+0  12956-2 0  9992,2 45384  53.0504  85.5500 0002078 322.1037  37.9825 15.51334527331626
STARLINK-1272,45386,53.0439,0.0002608,15.5786724,392.064573296223,395.596831649832,1 45386U 20019AC  26077.39617846  .00050688  00000+0  66989-3 0  9991,2 45386  53.0439  67.5369 0002608 128.3183 231.8063 15.57867240331881
STARLINK-1274,45387,53.0269,0.0002349,15.48547237,419.3780081620025,422.5722310357896,1 45387U 20019AD  26077.11629174  .00083137  00000+0  15270-2 0  9990,2 45387  53.0269  62.6106 0002349 253.9864 106.0885 15.48547237331922
STARLINK-1280,45388,53.0414,0.0001771,15.66559784,367.5616910541994,369.9514407552424,1 45388U 20019AE  26077.71278093  .00046977  00000+0  44381-3 0  9994,2 45388  53.0414  78.1272 0001771  87.4501 272.6717 15.66559784331752
STARLINK-1283,45389,53.0427,0.0002813,15.5841345,390.34375783911764,394.15277659045205,1 45389U 20019AF  26077.66668981  .00040983  00000+0  53251-3 0  9995,2 45389  53.0427  66.4205 0002813 277.7475 235.0078 15.58413450  5879
STARLINK-1284,45390,53.0454,0.000459,15.53419385,403.6369138953569,409.8654412423648,1 45390U 20019AG  26077.75432862  .00083061  00000+0  12826-2 0  9990,2 45390  53.0454  87.3165 0004590  46.7129 313.4262 15.53419385331632
STARLINK-1297,45395,53.0468,0.000581,15.55958505,395.4300737673575,403.3055343496735,1 45395U 20019AM  26077.87966240  .00086703  00000+0  12190-2 0  9990,2 45395  53.0468  86.2630 0005810  51.9564 308.1970 15.55958505330847
STARLINK-1307,45397,53.0548,0.0002693,15.50456618,413.56242336159175,417.2214180382807,1 45397U 20019AP  26077.32153172  .00018576  00000+0  32777-3 0  9991,2 45397  53.0548  89.3111 0002693  56.5616 303.5649 15.50456618331397
STARLINK-1255,45399,53.0405,0.0001516,15.5351045,405.4574778877368,407.51457558944367,1 45399U 20019AR  26077.12116570  .00089357  00000+0  13741-2 0  9996,2 45399  53.0405  62.1107 0001516  33.6915 326.4190 15.53510450331748
STARLINK-1260,45404,53.1605,9.34e-05,15.30190531,474.60323656835135,475.88344801629046,1 45404U 20019AW  26077.44991357  .00002177  00000+0  85613-4 0  9996,2 45404  53.1605  88.5506 0000934  75.2256 284.8848 15.30190531331315
